{"type": "FeatureCollection", "features": [ {"type": "Feature", "properties": {"norad_id": 29919, "name": "FENGYUN 1C DEB", "group": "fengyun-1c-debris", "lat": 34.25727519695075, "lon": -32.132986251982665, "alt_km": 1040.1080834030618, "timestamp": "2025-12-13T16:48:32.982640+00:00", "meta": {"OBJECT_NAME": "FENGYUN 1C DEB", "OBJECT_ID": "1999-025HR", "EPOCH": "2025-12-12T23:21:25.832160", "MEAN_MOTION": 13.85123283, "ECCENTRICITY": 0.0137349, "INCLINATION": 98.4791, "RA_OF_ASC_NODE": 141.3783, "ARG_OF_PERICENTER": 343.1726, "MEAN_ANOMALY": 137.6281, "EPHEMERIS_TYPE": 0, "CLASSIFICATION_TYPE": "U", "NORAD_CAT_ID": 29919, "ELEMENT_SET_NO": 999, "REV_AT_EPOCH": 95538, "BSTAR": 0.00024382315, "MEAN_MOTION_DOT": 2.59e-06, "MEAN_MOTION_DDOT": 0}, "tle": {"line1": "1 29919U 99025HR  25346.97321565  .00000259  00000+0  24382-3 0  9990", "line2": "2 29919  98.4791 141.3783 0137349 343.1726 137.6281 13.85123283955384"}}, "geometry": {"type": "Point", "coordinates": [-32.132986251982665, 34.25727519695075]}}, {"type": "Feature", "properties": {"norad_id": 29920, "name": "FENGYUN 1C DEB", "group": "fengyun-1c-debris", "lat": 80.26818041320766, "lon": 142.73476597974374, "alt_km": 962.3573568876373, "timestamp": "2025-12-13T16:48:32.982650+00:00", "meta": {"OBJECT_NAME": "FENGYUN 1C DEB", "OBJECT_ID": "1999-025HS", "EPOCH": "2025-12-11T13:04:37.493760", "MEAN_MOTION": 14.03650614, "ECCENTRICITY": 0.01254176, "INCLINATION": 98.3912, "RA_OF_ASC_NODE": 200.1323, "ARG_OF_PERICENTER": 284.2271, "MEAN_ANOMALY": 74.4994, "EPHEMERIS_TYPE": 0, "CLASSIFICATION_TYPE": "U", "NORAD_CAT_ID": 29920, "ELEMENT_SET_NO": 999, "REV_AT_EPOCH": 96271, "BSTAR": 0.0018726775, "MEAN_MOTION_DOT": 3.115e-05, "MEAN_MOTION_DDOT": 0}, "tle": {"line1": "1 29920U 99025HS  25345.54487840  .00003115  00000+0  18727-2 0  9992", "line2": "2 29920  98.3912 200.1323 0125417 284.2271  74.4994 14.03650614962715"}}, "geometry": {"type": "Point", "coordinates": [142.73476597974374, 80.26818041320766]}}, {"type": "Feature", "properties": {"norad_id": 29921, "name": "FENGYUN 1C DEB", "group": "fengyun-1c-debris", "lat": -68.29849071399792, "lon": 16.659006922826826, "alt_km": 902.68888440513, "timestamp": "2025-12-13T16:48:32.982660+00:00", "meta": {"OBJECT_NAME": "FENGYUN 1C DEB", "OBJECT_ID": "1999-025HT", "EPOCH": "2025-12-13T00:11:49.688736", "MEAN_MOTION": 14.06643889, "ECCENTRICITY": 0.00464259, "INCLINATION": 98.7868, "RA_OF_ASC_NODE": 353.1171, "ARG_OF_PERICENTER": 69.0071, "MEAN_ANOMALY": 318.183, "EPHEMERIS_TYPE": 0, "CLASSIFICATION_TYPE": "U", "NORAD_CAT_ID": 29921, "ELEMENT_SET_NO": 999, "REV_AT_EPOCH": 96880, "BSTAR": 0.00050707253, "MEAN_MOTION_DOT": 8.07e-06, "MEAN_MOTION_DDOT": 0}, "tle": {"line1": "1 29921U 99025HT  25347.00821399  .00000807  00000+0  50707-3 0  9997", "line2": "2 29921  98.7868 353.1171 0046425  69.0071 318.1830 14.06643889968800"}}, "geometry": {"type": "Point", "coordinates": [16.659006922826826, -68.29849071399792]}}, {"type": "Feature", "properties": {"norad_id": 29922, "name": "FENGYUN 1C DEB", "group": "fengyun-1c-debris", "lat": 49.19328677905068, "lon": 34.40457146471034, "alt_km": 846.500774042709, "timestamp": "2025-12-13T16:48:32.982671+00:00", "meta": {"OBJECT_NAME": "FENGYUN 1C DEB", "OBJECT_ID": "1999-025HU", "EPOCH": "2025-12-12T21:41:17.854368", "MEAN_MOTION": 13.98580944, "ECCENTRICITY": 0.00932402, "INCLINATION": 99.1357, "RA_OF_ASC_NODE": 44.3524, "ARG_OF_PERICENTER": 6.575, "MEAN_ANOMALY": 353.6613, "EPHEMERIS_TYPE": 0, "CLASSIFICATION_TYPE": "U", "NORAD_CAT_ID": 29922, "ELEMENT_SET_NO": 999, "REV_AT_EPOCH": 96443, "BSTAR": 0.00014335478, "MEAN_MOTION_DOT": 1.68e-06, "MEAN_MOTION_DDOT": 0}, "tle": {"line1": "1 29922U 99025HU  25346.90367887  .00000168  00000+0  14335-3 0  9990", "line2": "2 29922  99.1357  44.3524 0093240   6.5750 353.6613 13.98580944964437"}}, "geometry": {"type": "Point", "coordinates": [34.40457146471034, 49.19328677905068]}}, {"type": "Feature", "properties": {"norad_id": 29923, "name": "FENGYUN 1C DEB", "group": "fengyun-1c-debris", "lat": -55.47064349082846, "lon": 8.806034387276142, "alt_km": 862.4066379983678, "timestamp": "2025-12-13T16:48:32.982680+00:00", "meta": {"OBJECT_NAME": "FENGYUN 1C DEB", "OBJECT_ID": "1999-025HV", "EPOCH": "2025-12-13T00:12:59.850720", "MEAN_MOTION": 14.13893099, "ECCENTRICITY": 0.00176495, "INCLINATION": 98.6883, "RA_OF_ASC_NODE": 355.2935, "ARG_OF_PERICENTER": 168.5291, "MEAN_ANOMALY": 217.9121, "EPHEMERIS_TYPE": 0, "CLASSIFICATION_TYPE": "U", "NORAD_CAT_ID": 29923, "ELEMENT_SET_NO": 999, "REV_AT_EPOCH": 97279, "BSTAR": 0.00066308693, "MEAN_MOTION_DOT": 1.216e-05, "MEAN_MOTION_DDOT": 0}, "tle": {"line1": "1 29923U 99025HV  25347.00902605  .00001216  00000+0  66309-3 0  9999", "line2": "2 29923  98.6883 355.2935 0017649 168.5291 217.9121 14.13893099972794"}}, "geometry": {"type": "Point", "coordinates": [8.806034387276142, -55.47064349082846]}}, {"type": "Feature", "properties": {"norad_id": 29924, "name": "FENGYUN 1C DEB", "group": "fengyun-1c-debris", "lat": -77.09862622312409, "lon": 138.47092293394803, "alt_km": 851.800877486221, "timestamp": "2025-12-13T16:48:32.982690+00:00", "meta": {"OBJECT_NAME": "FENGYUN 1C DEB", "OBJECT_ID": "1999-025HW", "EPOCH": "2025-12-13T00:22:18.343776", "MEAN_MOTION": 14.08890207, "ECCENTRICITY": 0.00259137, "INCLINATION": 98.7345, "RA_OF_ASC_NODE": 359.9645, "ARG_OF_PERICENTER": 256.8169, "MEAN_ANOMALY": 131.7676, "EPHEMERIS_TYPE": 0, "CLASSIFICATION_TYPE": "U", "NORAD_CAT_ID": 29924, "ELEMENT_SET_NO": 999, "REV_AT_EPOCH": 97212, "BSTAR": 5.5219105e-05, "MEAN_MOTION_DOT": 5.3e-07, "MEAN_MOTION_DDOT": 0}, "tle": {"line1": "1 29924U 99025HW  25347.01549009  .00000053  00000+0  55219-4 0  9993", "line2": "2 29924  98.7345 359.9645 0025913 256.8169 131.7676 14.08890207972123"}}, "geometry": {"type": "Point", "coordinates": [138.47092293394803, -77.09862622312409]}}, {"type": "Feature", "properties": {"norad_id": 29926, "name": "FENGYUN 1C DEB", "group": "fengyun-1c-debris", "lat": -29.915175025279602, "lon": 151.75286072463217, "alt_km": 773.300881390508, "timestamp": "2025-12-13T16:48:32.982700+00:00", "meta": {"OBJECT_NAME": "FENGYUN 1C DEB", "OBJECT_ID": "1999-025HY", "EPOCH": "2025-12-12T23:10:02.835840", "MEAN_MOTION": 14.33394924, "ECCENTRICITY": 0.02482149, "INCLINATION": 98.2834, "RA_OF_ASC_NODE": 335.8569, "ARG_OF_PERICENTER": 299.57, "MEAN_ANOMALY": 82.4828, "EPHEMERIS_TYPE": 0, "CLASSIFICATION_TYPE": "U", "NORAD_CAT_ID": 29926, "ELEMENT_SET_NO": 999, "REV_AT_EPOCH": 98584, "BSTAR": 0.00061008809, "MEAN_MOTION_DOT": 2.323e-05, "MEAN_MOTION_DDOT": 0}, "tle": {"line1": "1 29926U 99025HY  25346.96531060  .00002323  00000+0  61009-3 0  9991", "line2": "2 29926  98.2834 335.8569 0248214 299.5700  82.4828 14.33394924985844"}}, "geometry": {"type": "Point", "coordinates": [151.75286072463217, -29.915175025279602]}}, {"type": "Feature", "properties": {"norad_id": 29927, "name": "FENGYUN 1C DEB", "group": "fengyun-1c-debris", "lat": 55.217120920388886, "lon": -154.9148913405275, "alt_km": 639.6660620914772, "timestamp": "2025-12-13T16:48:32.982711+00:00", "meta": {"OBJECT_NAME": "FENGYUN 1C DEB", "OBJECT_ID": "1999-025HZ", "EPOCH": "2025-12-12T07:45:34.208640", "MEAN_MOTION": 14.74544576, "ECCENTRICITY": 0.00177972, "INCLINATION": 99.0851, "RA_OF_ASC_NODE": 10.2229, "ARG_OF_PERICENTER": 211.594, "MEAN_ANOMALY": 166.3701, "EPHEMERIS_TYPE": 0, "CLASSIFICATION_TYPE": "U", "NORAD_CAT_ID": 29927, "ELEMENT_SET_NO": 999, "REV_AT_EPOCH": 98641, "BSTAR": 0.0043815138, "MEAN_MOTION_DOT": 0.00029297, "MEAN_MOTION_DDOT": 0}, "tle": {"line1": "1 29927U 99025HZ  25346.32331260  .00029297  00000+0  43815-2 0  9995", "line2": "2 29927  99.0851  10.2229 0017797 211.5940 166.3701 14.74544576986411"}}, "geometry": {"type": "Point", "coordinates": [-154.9148913405275, 55.217120920388886]}}, {"type": "Feature", "properties": {"norad_id": 29928, "name": "FENGYUN 1C DEB", "group": "fengyun-1c-debris", "lat": -62.91337160420863, "lon": 31.285302872813926, "alt_km": 1043.7058699569097, "timestamp": "2025-12-13T16:48:32.982721+00:00", "meta": {"OBJECT_NAME": "FENGYUN 1C DEB", "OBJECT_ID": "1999-025JA", "EPOCH": "2025-12-12T14:02:52.785888", "MEAN_MOTION": 13.88084152, "ECCENTRICITY": 0.01434111, "INCLINATION": 99.5851, "RA_OF_ASC_NODE": 10.8478, "ARG_OF_PERICENTER": 103.4977, "MEAN_ANOMALY": 23.3852, "EPHEMERIS_TYPE": 0, "CLASSIFICATION_TYPE": "U", "NORAD_CAT_ID": 29928, "ELEMENT_SET_NO": 999, "REV_AT_EPOCH": 95489, "BSTAR": 0.00087301739, "MEAN_MOTION_DOT": 1.084e-05, "MEAN_MOTION_DDOT": 0}, "tle": {"line1": "1 29928U 99025JA  25346.58533317  .00001084  00000+0  87302-3 0  9995", "line2": "2 29928  99.5851  10.8478 0143411 103.4977  23.3852 13.88084152954890"}}, "geometry": {"type": "Point", "coordinates": [31.285302872813926, -62.91337160420863]}}, {"type": "Feature", "properties": {"norad_id": 29929, "name": "FENGYUN 1C DEB", "group": "fengyun-1c-debris", "lat": -25.618194974273027, "lon": 82.71903245123956, "alt_km": 813.6594857744694, "timestamp": "2025-12-13T16:48:32.982731+00:00", "meta": {"OBJECT_NAME": "FENGYUN 1C DEB", "OBJECT_ID": "1999-025JB", "EPOCH": "2025-12-13T00:29:31.612128", "MEAN_MOTION": 14.01362259, "ECCENTRICITY": 0.01311939, "INCLINATION": 98.6237, "RA_OF_ASC_NODE": 266.2494, "ARG_OF_PERICENTER": 175.4472, "MEAN_ANOMALY": 201.5658, "EPHEMERIS_TYPE": 0, "CLASSIFICATION_TYPE": "U", "NORAD_CAT_ID": 29929, "ELEMENT_SET_NO": 999, "REV_AT_EPOCH": 95960, "BSTAR": 0.0014364595, "MEAN_MOTION_DOT": 2.294e-05, "MEAN_MOTION_DDOT": 0}, "tle": {"line1": "1 29929U 99025JB  25347.02050477  .00002294  00000+0  14365-2 0  9999", "line2": "2 29929  98.6237 266.2494 0131193 175.4472 201.5658 14.01362259959608"}}, "geometry": {"type": "Point", "coordinates": [82.71903245123956, -25.618194974273027]}}]}